{
    "links": {
        "self": "http://www.neowsapp.com/rest/v1/neo/3275508?api_key=iIulBulltgU6a56xZRHN4H3l9WmuAYTsLGpBGhQ2"
    },
    "id": "3275508",
    "neo_reference_id": "3275508",
    "name": "(2005 GH)",
    "designation": "2005 GH",
    "nasa_jpl_url": "http://ssd.jpl.nasa.gov/sbdb.cgi?sstr=3275508",
    "absolute_magnitude_h": 21.2,
    "estimated_diameter": {
        "kilometers": {
            "estimated_diameter_min": 0.1529519353,
            "estimated_diameter_max": 0.3420109247
        },
        "meters": {
            "estimated_diameter_min": 152.9519353442,
            "estimated_diameter_max": 342.0109247198
        },
        "miles": {
            "estimated_diameter_min": 0.095039897,
            "estimated_diameter_max": 0.2125156703
        },
        "feet": {
            "estimated_diameter_min": 501.8108275547,
            "estimated_diameter_max": 1122.0831222578
        }
    },
    "is_potentially_hazardous_asteroid": false,
    "close_approach_data": [
        {
            "close_approach_date": "2005-03-11",
            "close_approach_date_full": "2005-Mar-11 21:18",
            "epoch_date_close_approach": 1110575880000,
            "relative_velocity": {
                "kilometers_per_second": "10.5814871826",
                "kilometers_per_hour": "38093.3538573766",
                "miles_per_hour": "23669.7286787682"
            },
            "miss_distance": {
                "astronomical": "0.3083289711",
                "lunar": "119.9399697579",
                "kilometers": "46125357.335851557",
                "miles": "28660968.0217512066"
            },
            "orbiting_body": "Earth"
        }
    ],
    "orbital_data": {
        "orbit_id": "9",
        "orbit_determination_date": "2017-04-06 09:11:12",
        "first_observation_date": "2005-04-01",
        "last_observation_date": "2005-05-02",
        "data_arc_in_days": 31,
        "observations_used": 30,
        "orbit_uncertainty": "7",
        "minimum_orbit_intersection": ".24445",
        "jupiter_tisserand_invariant": "3.460",
        "epoch_osculation": "2459000.5",
        "eccentricity": ".4771280856554937",
        "semi_major_axis": "2.173176304310747",
        "inclination": "20.25566116131435",
        "ascending_node_longitude": "189.4975894803304",
        "orbital_period": "1170.148198440462",
        "perihelion_distance": "1.136292854443079",
        "perihelion_argument": "306.4456359874017",
        "aphelion_distance": "3.210059754178414",
        "perihelion_time": "2459247.967077321411",
        "mean_anomaly": "283.8659274488122",
        "mean_motion": ".3076533386794914",
        "equinox": "J2000",
        "orbit_class": {
            "orbit_class_type": "AMO",
            "orbit_class_description": "Near-Earth asteroid orbits similar to that of 1221 Amor",
            "orbit_class_range": "1.017 AU < q (perihelion) < 1.3 AU"
        }
    },
    "is_sentry_object": false
}